IRIDIUM 106             
1 41917U 17003A   26024.09326506  .00000465  00000+0  15897-3 0  9995
2 41917  86.4020 148.7755 0002090  84.2830 275.8604 14.34215969472556
IRIDIUM 103             
1 41918U 17003B   26023.80150408  .00000610  00000+0  21072-3 0  9994
2 41918  86.4019 148.7977 0002410  98.7893 261.3576 14.34216650472530
IRIDIUM 109             
1 41919U 17003C   26024.08692427  .00000569  00000+0  19598-3 0  9991
2 41919  86.4020 148.7356 0002078  96.1763 263.9669 14.34216019472543
IRIDIUM 102             
1 41920U 17003D   26024.05520575  .00000211  00000+0  68211-4 0  9995
2 41920  86.4020 148.6757 0002048  98.4381 261.7047 14.34219971472622
IRIDIUM 105             
1 41921U 17003E   26024.16547398  .00000315  00000+0  10549-3 0  9995
2 41921  86.3987 117.1139 0002121  96.4434 263.7004 14.34218144474491
IRIDIUM 104             
1 41922U 17003F   26024.06788532  .00000351  00000+0  11829-3 0  9994
2 41922  86.4021 148.7108 0002197 104.5456 255.5984 14.34222105472616
IRIDIUM 114             
1 41923U 17003G   26023.44631927  .00000138  00000+0  42113-4 0  9995
2 41923  86.4016 148.9535 0002232 100.3327 259.8121 14.34219252472505
IRIDIUM 108             
1 41924U 17003H   26024.17228901  .00000350  00000+0  11792-3 0  9995
2 41924  86.3981 116.9985 0001955  96.6709 263.4709 14.34221618474461
